KUIPER-00027            
1 63740U 25088S   25356.40615470  .00000828  00000+0  13760-3 0  9998
2 63740  51.9024  77.3247 0003718 270.1515  89.9021 14.79974640 36170
KUIPER-00028            
1 63741U 25088T   25356.49039354  .00002164  00000+0  31448-3 0  9997
2 63741  51.9009  74.9209 0003770 283.6396  76.4146 14.79710320 36621
KUIPER-00029            
1 63742U 25088U   25356.46198871  .00003934  00000+0  58703-3 0  9994
2 63742  51.9030  72.9581 0008338 224.1191 135.9105 14.76704137 36177
KUIPER-00030            
1 63743U 25088V   25356.45757935  .00008176  00000+0  10988-2 0  9991
2 63743  51.9027  92.0591 0015287 173.0671 187.0506 14.79920632 36192
KUIPER-00031            
1 63744U 25088W   25356.20195928  .00002968  00000+0  41780-3 0  9991
2 63744  51.9023  79.2596 0003647 211.3102 148.7644 14.79975296 36062
KUIPER-00032            
1 63745U 25088X   25356.54111301  .00015240  00000+0  46839-3 0  9999
2 63745  51.8713  36.2087 0003395 210.7222 149.3565 15.33882749 37692
KUIPER-00033            
1 63746U 25088Y   25356.50728331  .00005123  00000+0  69937-3 0  9996
2 63746  51.9003 107.8967 0003022 274.3959  85.6658 14.80005079 36179
KUIPER-00034            
1 63747U 25088Z   25356.48021156  .00006517  00000+0  88227-3 0  9996
2 63747  51.9021  70.5335 0000974 228.5234 131.5645 14.79970967 36379
